{"type": "FeatureCollection", "features": [ {"type": "Feature", "properties": {"norad_id": 61183, "name": "GSAT0226 (GALILEO 31)", "group": "galileo", "lat": 12.658131809324662, "lon": 37.28701348613112, "alt_km": 23219.118959599553, "timestamp": "2025-12-19T20:43:00.348693+00:00", "meta": {"OBJECT_NAME": "GSAT0226 (GALILEO 31)", "OBJECT_ID": "2024-167B", "EPOCH": "2025-12-19T04:09:25.934976", "MEAN_MOTION": 1.70473763, "ECCENTRICITY": 0.0001068, "INCLINATION": 55.2375, "RA_OF_ASC_NODE": 226.2599, "ARG_OF_PERICENTER": 106.7588, "MEAN_ANOMALY": 354.3657, "EPHEMERIS_TYPE": 0, "CLASSIFICATION_TYPE": "U", "NORAD_CAT_ID": 61183, "ELEMENT_SET_NO": 999, "REV_AT_EPOCH": 778, "BSTAR": 0, "MEAN_MOTION_DOT": 6.7e-07, "MEAN_MOTION_DDOT": 0}, "tle": {"line1": "1 61183U 24167B   25353.17321684  .00000067  00000+0  00000+0 0  9990", "line2": "2 61183  55.2375 226.2599 0001068 106.7588 354.3657  1.70473763  7786"}}, "geometry": {"type": "Point", "coordinates": [37.28701348613112, 12.658131809324662]}}, {"type": "Feature", "properties": {"norad_id": 67160, "name": "GALILEO A", "group": "galileo", "lat": -9.009048793017909, "lon": 100.63564121423641, "alt_km": 22954.40375790946, "timestamp": "2025-12-19T20:43:00.348706+00:00", "meta": {"OBJECT_NAME": "GALILEO A", "OBJECT_ID": "2025-302A", "EPOCH": "2025-12-18T03:30:19.276416", "MEAN_MOTION": 1.72903353, "ECCENTRICITY": 0.00081342, "INCLINATION": 54.2386, "RA_OF_ASC_NODE": 107.2478, "ARG_OF_PERICENTER": 237.4124, "MEAN_ANOMALY": 122.4681, "EPHEMERIS_TYPE": 0, "CLASSIFICATION_TYPE": "U", "NORAD_CAT_ID": 67160, "ELEMENT_SET_NO": 999, "REV_AT_EPOCH": 2, "BSTAR": 0, "MEAN_MOTION_DOT": -7e-08, "MEAN_MOTION_DDOT": 0}, "tle": {"line1": "1 67160U 25302A   25352.14605644 -.00000007  00000+0  00000+0 0  9995", "line2": "2 67160  54.2386 107.2478 0008134 237.4124 122.4681  1.72903353    27"}}, "geometry": {"type": "Point", "coordinates": [100.63564121423641, -9.009048793017909]}}, {"type": "Feature", "properties": {"norad_id": 67161, "name": "GALILEO B", "group": "galileo", "lat": -8.533081024067771, "lon": 100.96201655071943, "alt_km": 22939.802588536586, "timestamp": "2025-12-19T20:43:00.348717+00:00", "meta": {"OBJECT_NAME": "GALILEO B", "OBJECT_ID": "2025-302B", "EPOCH": "2025-12-18T17:22:24.246336", "MEAN_MOTION": 1.72971576, "ECCENTRICITY": 0.00048165, "INCLINATION": 54.2288, "RA_OF_ASC_NODE": 107.2066, "ARG_OF_PERICENTER": 251.7259, "MEAN_ANOMALY": 108.1814, "EPHEMERIS_TYPE": 0, "CLASSIFICATION_TYPE": "U", "NORAD_CAT_ID": 67161, "ELEMENT_SET_NO": 999, "REV_AT_EPOCH": 4, "BSTAR": 0, "MEAN_MOTION_DOT": -6e-08, "MEAN_MOTION_DDOT": 0}, "tle": {"line1": "1 67161U 25302B   25352.72389174 -.00000006  00000+0  00000+0 0  9996", "line2": "2 67161  54.2288 107.2066 0004816 251.7259 108.1814  1.72971576    46"}}, "geometry": {"type": "Point", "coordinates": [100.96201655071943, -8.533081024067771]}}]}